COSMOS 2251 DEB         
1 35292U 93036AJW 17345.15073007  .00003265  00000-0  31868-3 0  9990
2 35292  74.0008 281.1805 0023634  78.7114 281.6723 14.92668441237021
